NORAD_CAT_ID,OBJECT_NAME,OBJECT_TYPE,EPOCH,MEAN_MOTION,ECCENTRICITY,INCLINATION,RA_OF_ASC_NODE,ARG_OF_PERICENTER,MEAN_ANOMALY,BSTAR,MEAN_MOTION_DOT,MEAN_MOTION_DDOT,TLE_LINE0,TLE_LINE1,TLE_LINE2,SEMIMAJOR_AXIS,PERIOD,APOGEE,PERIGEE,DECAYED
49453.0,STARLINK-3129,PAYLOAD,2023-06-28 10:13:15,15.08837967,0.0001172,53.2176,322.2287,93.8465,266.2661,3.1641e-05,2.16e-06,0.0,0 STARLINK-3129,1 49453U 21104AX  23179.42587137  .00000216  00000-0  31641-4 0  9990,2 49453  53.2176 322.2287 0001172  93.8465 266.2661 15.08837967 91107,6917.887,95.438,540.562,538.941,0.0
49453.0,STARLINK-3129,PAYLOAD,2023-06-28 21:20:56,15.08846186,9.97e-05,53.2182,320.1478,104.9047,255.2056,0.00015144,2.124e-05,0.0,0 STARLINK-3129,1 49453U 21104AX  23179.88954617  .00002124  00000-0  15144-3 0  9990,2 49453  53.2182 320.1478 0000997 104.9047 255.2056 15.08846186 91173,6917.861,95.437,540.416,539.037,0.0
49453.0,STARLINK-3129,PAYLOAD,2023-06-29 08:28:39,15.08835995,0.0001124,53.2176,318.0661,88.3596,271.7525,-9.6421e-05,-1.822e-05,0.0,0 STARLINK-3129,1 49453U 21104AX  23180.35323259 -.00001822  00000-0 -96421-4 0  9990,2 49453  53.2176 318.0661 0001124  88.3596 271.7525 15.08835995 91241,6917.893,95.438,540.535,538.98,0.0
49453.0,STARLINK-3129,PAYLOAD,2023-07-01 01:48:40,15.08838806,0.0001064,53.2179,310.3343,93.5816,266.5298,-6.5321e-06,-3.92e-06,0.0,0 STARLINK-3129,1 49453U 21104AX  23182.07547044 -.00000392  00000-0 -65321-5 0  9998,2 49453  53.2179 310.3343 0001064  93.5816 266.5298 15.08838806 91504,6917.884,95.438,540.485,539.013,0.0
49453.0,STARLINK-3129,PAYLOAD,2023-07-02 14:22:33,15.08841721,9.38e-05,53.2172,303.4957,89.3635,270.7464,9.6287e-05,1.245e-05,0.0,0 STARLINK-3129,1 49453U 21104AX  23183.59899413  .00001245  00000-0  96287-4 0  9996,2 49453  53.2172 303.4957 0000938  89.3635 270.7464 15.08841721 91739,6917.875,95.437,540.389,539.091,0.0
49453.0,STARLINK-3129,PAYLOAD,2023-07-03 12:37:55,15.08864755,0.0001117,53.2172,299.3321,83.6008,276.5111,-0.00041588,-6.905e-05,0.0,0 STARLINK-3129,1 49453U 21104AX  23184.52633985 -.00006905  00000-0 -41588-3 0  9993,2 49453  53.2172 299.3321 0001117  83.6008 276.5111 15.08864755 91878,6917.805,95.436,540.442,538.897,0.0
49453.0,STARLINK-3129,PAYLOAD,2023-07-03 17:24:06,15.08850911,9.59e-05,53.2171,298.4406,88.4336,271.6766,0.00027939,4.163e-05,0.0,0 STARLINK-3129,1 49453U 21104AX  23184.72507039  .00004163  00000-0  27939-3 0  9991,2 49453  53.2171 298.4406 0000959  88.4336 271.6766 15.08850911 91906,6917.847,95.437,540.375,539.049,0.0
49453.0,STARLINK-3129,PAYLOAD,2023-07-04 10:53:21,15.08842154,0.0001065,53.2174,295.1697,85.5551,274.5563,0.00012016,1.625e-05,0.0,0 STARLINK-3129,1 49453U 21104AX  23185.45371596  .00001625  00000-0  12016-3 0  9999,2 49453  53.2174 295.1697 0001065  85.5551 274.5563 15.08842154 92011,6917.874,95.437,540.476,539.002,0.0
49453.0,STARLINK-3129,PAYLOAD,2023-07-05 13:54:54,15.08841632,0.0001025,53.2184,290.1212,104.6018,255.5088,0.00010251,1.344e-05,0.0,0 STARLINK-3129,1 49453U 21104AX  23186.57979568  .00001344  00000-0  10251-3 0  9993,2 49453  53.2184 290.1212 0001025 104.6018 255.5088 15.08841632 92186,6917.875,95.437,540.449,539.031,0.0
49453.0,STARLINK-3129,PAYLOAD,2023-07-06 07:24:09,15.08836839,9.54e-05,53.2176,286.8435,92.5431,267.567,8.5109e-05,1.067e-05,0.0,0 STARLINK-3129,1 49453U 21104AX  23187.30843874  .00001067  00000-0  85109-4 0  9992,2 49453  53.2176 286.8435 0000954  92.5431 267.5670 15.08836839 92295,6917.89,95.438,540.415,539.095,0.0
49453.0,STARLINK-3129,PAYLOAD,2023-07-07 10:25:42,15.08846245,0.0001026,53.2168,281.7899,108.5663,251.544,0.00015812,2.23e-05,0.0,0 STARLINK-3129,1 49453U 21104AX  23188.43451486  .00002230  00000-0  15812-3 0  9997,2 49453  53.2168 281.7899 0001026 108.5663 251.5440 15.08846245 92469,6917.861,95.437,540.436,539.017,0.0
49453.0,STARLINK-3129,PAYLOAD,2023-07-08 05:30:19,15.08840539,9.47e-05,53.2163,278.2218,86.5815,273.5286,8.1904e-05,1.016e-05,0.0,0 STARLINK-3129,1 49453U 21104AX  23189.22939615  .00001016  00000-0  81904-4 0  9997,2 49453  53.2163 278.2218 0000947  86.5815 273.5286 15.08840539 92580,6917.879,95.438,540.399,539.089,0.0
49453.0,STARLINK-3129,PAYLOAD,2023-07-08 22:59:34,15.08827764,6.62e-05,53.2164,274.9501,96.1445,263.9623,-0.00020877,-3.607e-05,0.0,0 STARLINK-3129,1 49453U 21104AX  23189.95803920 -.00003607  00000-0 -20877-3 0  9997,2 49453  53.2164 274.9501 0000662  96.1445 263.9623 15.08827764 92694,6917.918,95.438,540.241,539.325,0.0
49453.0,STARLINK-3129,PAYLOAD,2023-07-09 22:50:22,15.08838892,9.57e-05,53.2155,270.4892,82.5888,277.5213,0.00083112,0.00012964,0.0,0 STARLINK-3129,1 49453U 21104AX  23190.95164658  .00012964  00000-0  83112-3 0  9992,2 49453  53.2155 270.4892 0000957  82.5888 277.5213 15.08838892 92842,6917.884,95.438,540.411,539.087,0.0
49453.0,STARLINK-3129,PAYLOAD,2023-07-10 22:41:08,15.0884864,8.71e-05,53.2161,266.0282,82.0309,278.0781,0.00033023,4.973e-05,0.0,0 STARLINK-3129,1 49453U 21104AX  23191.94524143  .00004973  00000-0  33023-3 0  9998,2 49453  53.2161 266.0282 0000871  82.0309 278.0781 15.08848640 92995,6917.854,95.437,540.322,539.116,0.0
49453.0,STARLINK-3129,PAYLOAD,2023-07-12 08:04:14,15.08839361,0.0001213,53.2177,259.7805,103.3785,256.7342,-6.6646e-07,-2.98e-06,0.0,0 STARLINK-3129,1 49453U 21104AX  23193.33628086 -.00000298  00000-0 -66646-6 0  9992,2 49453  53.2177 259.7805 0001213 103.3785 256.7342 15.08839361 93209,6917.882,95.438,540.586,538.908,0.0
49453.0,STARLINK-3129,PAYLOAD,2023-07-13 11:05:48,15.08841255,0.0001102,53.2171,254.7281,91.5771,268.5348,5.9705e-05,6.63e-06,0.0,0 STARLINK-3129,1 49453U 21104AX  23194.46236204  .00000663  00000-0  59705-4 0  9994,2 49453  53.2171 254.7281 0001102  91.5771 268.5348 15.08841255 93376,6917.877,95.437,540.504,538.979,0.0
49453.0,STARLINK-3129,PAYLOAD,2023-07-14 14:07:21,15.0884278,0.000112,53.2167,249.6736,89.4373,270.6748,0.00014913,2.087e-05,0.0,0 STARLINK-3129,1 49453U 21104AX  23195.58844387  .00002087  00000-0  14913-3 0  9998,2 49453  53.2167 249.6736 0001120  89.4373 270.6748 15.08842780 93544,6917.872,95.437,540.512,538.962,0.0
49453.0,STARLINK-3129,PAYLOAD,2023-07-15 15:33:31,15.08849678,0.0001091,53.2161,244.9154,87.4136,272.6981,0.00020125,2.917e-05,0.0,0 STARLINK-3129,1 49453U 21104AX  23196.64827950  .00002917  00000-0  20125-3 0  9997,2 49453  53.2161 244.9154 0001091  87.4136 272.6981 15.08849678 93704,6917.851,95.437,540.471,538.961,0.0
49453.0,STARLINK-3129,PAYLOAD,2023-07-16 02:41:14,15.08829846,9.31e-05,53.2161,242.8342,93.0509,267.059,-5.3462e-05,-1.138e-05,0.0,0 STARLINK-3129,1 49453U 21104AX  23197.11197082 -.00001138  00000-0 -53462-4 0  9993,2 49453  53.2161 242.8342 0000931  93.0509 267.0590 15.08829846 93775,6917.911,95.438,540.42,539.132,0.0
49453.0,STARLINK-3129,PAYLOAD,2023-07-16 15:24:19,15.0883533,0.0001031,53.2152,240.4553,92.4678,267.6432,1.5898e-05,-3.5e-07,0.0,0 STARLINK-3129,1 49453U 21104AX  23197.64188947 -.00000035  00000-0  15898-4 0  9996,2 49453  53.2152 240.4553 0001031  92.4678 267.6432 15.08835330 93850,6917.895,95.438,540.473,539.046,0.0
49453.0,STARLINK-3129,PAYLOAD,2023-07-18 02:22:48,15.08841214,0.0001039,53.2146,233.9135,93.9281,266.183,0.00028231,4.208e-05,0.0,0 STARLINK-3129,1 49453U 21104AX  23199.09917284  .00004208  00000-0  28231-3 0  9990,2 49453  53.2146 233.9135 0001039  93.9281 266.1830 15.08841214 94079,6917.877,95.437,540.46,539.023,0.0
49453.0,STARLINK-3129,PAYLOAD,2023-07-19 02:13:35,15.08839368,0.000119,53.2151,229.4511,103.7759,256.3366,6.3551e-05,7.24e-06,0.0,0 STARLINK-3129,1 49453U 21104AX  23200.09277243  .00000724  00000-0  63551-4 0  9991,2 49453  53.2151 229.4511 0001190 103.7759 256.3366 15.08839368 94220,6917.882,95.438,540.571,538.924,0.0
49453.0,STARLINK-3129,PAYLOAD,2023-07-21 01:55:09,15.08839245,0.0001091,53.2161,220.5306,99.547,260.5645,9.3342e-05,1.198e-05,0.0,0 STARLINK-3129,1 49453U 21104AX  23202.07997286  .00001198  00000-0  93342-4 0  9994,2 49453  53.2161 220.5306 0001091  99.5470 260.5645 15.08839245 94521,6917.883,95.438,540.502,538.993,0.0
49453.0,STARLINK-3129,PAYLOAD,2023-07-23 00:01:20,15.08839537,0.0001164,53.2167,211.9082,99.2634,260.849,6.1707e-05,6.94e-06,0.0,0 STARLINK-3129,1 49453U 21104AX  23204.00093515  .00000694  00000-0  61707-4 0  9991,2 49453  53.2167 211.9082 0001164  99.2634 260.8490 15.08839537 93740,6917.882,95.438,540.552,538.942,0.0
49453.0,STARLINK-3129,PAYLOAD,2023-07-25 09:15:13,15.08842661,0.0001074,53.2162,201.2029,84.6418,275.4697,9.7149e-05,1.259e-05,0.0,0 STARLINK-3129,1 49453U 21104AX  23206.38557417  .00001259  00000-0  97149-4 0  9997,2 49453  53.2162 201.2029 0001074  84.6418 275.4697 15.08842661 94100,6917.872,95.437,540.48,538.994,0.0
49453.0,STARLINK-3129,PAYLOAD,2023-07-26 09:06:00,15.08843928,0.000105,53.2164,196.7424,85.1107,275.0005,6.5278e-05,7.51e-06,0.0,0 STARLINK-3129,1 49453U 21104AX  23207.37917260  .00000751  00000-0  65278-4 0  9997,2 49453  53.2164 196.7424 0001050  85.1107 275.0005 15.08843928 94256,6917.868,95.437,540.46,539.007,0.0
49453.0,STARLINK-3129,PAYLOAD,2023-07-27 08:56:47,15.08843356,0.0001102,53.2157,192.2817,95.8163,264.2955,6.2774e-05,7.11e-06,0.0,0 STARLINK-3129,1 49453U 21104AX  23208.37277231  .00000711  00000-0  62774-4 0  9999,2 49453  53.2157 192.2817 0001102  95.8163 264.2955 15.08843356 94409,6917.87,95.437,540.497,538.973,0.0
49453.0,STARLINK-3129,PAYLOAD,2023-07-27 23:15:16,15.08834922,0.0001267,53.2169,189.6074,107.1168,252.9963,-2.767e-05,-7.28e-06,0.0,0 STARLINK-3129,1 49453U 21104AX  23208.96894128 -.00000728  00000-0 -27670-4 0  9990,2 49453  53.2169 189.6074 0001267 107.1168 252.9963 15.08834922 95561,6917.896,95.438,540.637,538.884,0.0
49453.0,STARLINK-3129,PAYLOAD,2023-07-28 08:47:35,15.08834571,0.0001141,53.2166,187.8218,101.0721,259.0399,8.1045e-06,-1.59e-06,0.0,0 STARLINK-3129,1 49453U 21104AX  23209.36638148 -.00000159  00000-0  81045-5 0  9997,2 49453  53.2166 187.8218 0001141 101.0721 259.0399 15.08834571 94556,6917.897,95.438,540.551,538.973,0.0
